start=new Date('2023-02-03T00:00:00.000Z').valueOf();
sats=[{"LAUNCH_DATE":"2021-02-16","RA_OF_ASC_NODE":"340.8167","TLE_LINE2":"2 47676  53.0555 340.8167 0001373 105.3682 254.7458 15.06404940111251","SEMIMAJOR_AXIS":"6925.333","EPOCH":"2023-02-02T06:09:29.401920","ARG_OF_PERICENTER":"105.3682","OBJECT_ID":"2021-012BJ","APOAPSIS":"548.149","MEAN_MOTION":"15.06404940","EPHEMERIS_TYPE":"0","NORAD_CAT_ID":"47676","BSTAR":"0.00018092000000","GP_ID":"224239131","ELEMENT_SET_NO":"999","PERIOD":"95.592","REF_FRAME":"TEME","MEAN_MOTION_DDOT":"0.0000000000000","COUNTRY_CODE":"US","SITE":"AFETR","FILE":"3768366","INCLINATION":"53.0555","CENTER_NAME":"EARTH","TIME_SYSTEM":"UTC","RCS_SIZE":"LARGE","REV_AT_EPOCH":"11125","ECCENTRICITY":"0.00013730","PERIAPSIS":"546.248","MEAN_ELEMENT_THEORY":"SGP4","MEAN_MOTION_DOT":"0.00002415","OBJECT_TYPE":"PAYLOAD","OBJECT_NAME":"STARLINK-2083","TLE_LINE1":"1 47676U 21012BJ  23033.25659030  .00002415  00000-0  18092-3 0  9992","MEAN_ANOMALY":"254.7458","DECAY_DATE":null,"CLASSIFICATION_TYPE":"U"},{"OBJECT_NAME":"STARLINK-2090","DECAY_DATE":null,"TLE_LINE1":"1 47677U 21012BK  23033.57908456  .00000401  00000-0  45828-4 0  9998","MEAN_ANOMALY":"270.9915","CLASSIFICATION_TYPE":"U","MEAN_MOTION_DOT":"0.00000401","OBJECT_TYPE":"PAYLOAD","MEAN_ELEMENT_THEORY":"SGP4","REV_AT_EPOCH":"10898","ECCENTRICITY":"0.00013880","PERIAPSIS":"546.259","TIME_SYSTEM":"UTC","CENTER_NAME":"EARTH","RCS_SIZE":"LARGE","INCLINATION":"53.0533","SITE":"AFETR","FILE":"3768493","MEAN_MOTION_DDOT":"0.0000000000000","REF_FRAME":"TEME","COUNTRY_CODE":"US","PERIOD":"95.592","ELEMENT_SET_NO":"999","BSTAR":"0.00004582800000","GP_ID":"224247079","MEAN_MOTION":"15.06397820","APOAPSIS":"548.181","EPHEMERIS_TYPE":"0","NORAD_CAT_ID":"47677","OBJECT_ID":"2021-012BK","EPOCH":"2023-02-02T13:53:52.905984","ARG_OF_PERICENTER":"89.1233","RA_OF_ASC_NODE":"109.3718","TLE_LINE2":"2 47677  53.0533 109.3718 0001388  89.1233 270.9915 15.06397820108987","SEMIMAJOR_AXIS":"6925.355","LAUNCH_DATE":"2021-02-16"},{"ARG_OF_PERICENTER":"81.6252","EPOCH":"2023-02-02T11:25:15.440160","OBJECT_ID":"2021-012BM","LAUNCH_DATE":"2021-02-16","TLE_LINE2":"2 47679  53.0533 109.8491 0001691  81.6252 278.4928 15.06408579108977","SEMIMAJOR_AXIS":"6925.322","RA_OF_ASC_NODE":"109.8491","ELEMENT_SET_NO":"999","PERIOD":"95.592","NORAD_CAT_ID":"47679","EPHEMERIS_TYPE":"0","APOAPSIS":"548.358","MEAN_MOTION":"15.06408579","GP_ID":"224247072","BSTAR":"0.00023687000000","INCLINATION":"53.0533","RCS_SIZE":"LARGE","CENTER_NAME":"EARTH","TIME_SYSTEM":"UTC","MEAN_MOTION_DDOT":"0.0000000000000","REF_FRAME":"TEME","COUNTRY_CODE":"US","FILE":"3768493","SITE":"AFETR","MEAN_MOTION_DOT":"0.00003249","OBJECT_TYPE":"PAYLOAD","CLASSIFICATION_TYPE":"U","OBJECT_NAME":"STARLINK-2095","MEAN_ANOMALY":"278.4928","TLE_LINE1":"1 47679U 21012BM  23033.47587315  .00003249  00000-0  23687-3 0  9997","DECAY_DATE":null,"REV_AT_EPOCH":"10897","ECCENTRICITY":"0.00016910","PERIAPSIS":"546.016","MEAN_ELEMENT_THEORY":"SGP4"},{"INCLINATION":"53.0519","TIME_SYSTEM":"UTC","CENTER_NAME":"EARTH","RCS_SIZE":"LARGE","COUNTRY_CODE":"US","MEAN_MOTION_DDOT":"0.0000000000000","REF_FRAME":"TEME","SITE":"AFETR","FILE":"3768366","OBJECT_TYPE":"PAYLOAD","MEAN_MOTION_DOT":"0.00000436","TLE_LINE1":"1 47722U 21017A   23033.58513231  .00000436  00000-0  48132-4 0  9997","DECAY_DATE":null,"MEAN_ANOMALY":"269.4260","OBJECT_NAME":"STARLINK-2068","CLASSIFICATION_TYPE":"U","PERIAPSIS":"546.568","REV_AT_EPOCH":"10750","ECCENTRICITY":"0.00009550","MEAN_ELEMENT_THEORY":"SGP4","EPOCH":"2023-02-02T14:02:35.431584","ARG_OF_PERICENTER":"90.6839","OBJECT_ID":"2021-017A","LAUNCH_DATE":"2021-03-04","RA_OF_ASC_NODE":"234.5868","TLE_LINE2":"2 47722  53.0519 234.5868 0000955  90.6839 269.4260 15.06394793107506","SEMIMAJOR_AXIS":"6925.365","PERIOD":"95.592","ELEMENT_SET_NO":"999","MEAN_MOTION":"15.06394793","APOAPSIS":"547.891","EPHEMERIS_TYPE":"0","NORAD_CAT_ID":"47722","BSTAR":"0.00004813200000","GP_ID":"224240874"},{"ECCENTRICITY":"0.00013310","REV_AT_EPOCH":"10776","PERIAPSIS":"546.300","MEAN_ELEMENT_THEORY":"SGP4","MEAN_MOTION_DOT":"0.00000230","OBJECT_TYPE":"PAYLOAD","CLASSIFICATION_TYPE":"U","OBJECT_NAME":"STARLINK-2107","TLE_LINE1":"1 47723U 21017B   23033.79196877  .00000230  00000-0  34331-4 0  9992","MEAN_ANOMALY":"254.1029","DECAY_DATE":null,"REF_FRAME":"TEME","MEAN_MOTION_DDOT":"0.0000000000000","COUNTRY_CODE":"US","FILE":"3768708","SITE":"AFETR","INCLINATION":"53.0507","RCS_SIZE":"LARGE","TIME_SYSTEM":"UTC","CENTER_NAME":"EARTH","NORAD_CAT_ID":"47723","APOAPSIS":"548.144","MEAN_MOTION":"15.06397304","EPHEMERIS_TYPE":"0","GP_ID":"224251520","BSTAR":"0.00003433100000","ELEMENT_SET_NO":"999","PERIOD":"95.592","LAUNCH_DATE":"2021-03-04","TLE_LINE2":"2 47723  53.0507 168.4173 0001331 106.0107 254.1029 15.06397304107760","SEMIMAJOR_AXIS":"6925.357","RA_OF_ASC_NODE":"168.4173","ARG_OF_PERICENTER":"106.0107","EPOCH":"2023-02-02T19:00:26.101728","OBJECT_ID":"2021-017B"},{"TLE_LINE1":"1 47724U 21017C   23033.56344551 -.00000484  00000-0 -13573-4 0  9990","MEAN_ANOMALY":"280.4401","DECAY_DATE":null,"OBJECT_NAME":"STARLINK-2116","CLASSIFICATION_TYPE":"U","OBJECT_TYPE":"PAYLOAD","MEAN_MOTION_DOT":"-0.00000484","MEAN_ELEMENT_THEORY":"SGP4","PERIAPSIS":"546.148","ECCENTRICITY":"0.00015350","REV_AT_EPOCH":"10834","CENTER_NAME":"EARTH","TIME_SYSTEM":"UTC","RCS_SIZE":"LARGE","INCLINATION":"53.0544","SITE":"AFETR","FILE":"3768366","COUNTRY_CODE":"US","REF_FRAME":"TEME","MEAN_MOTION_DDOT":"0.0000000000000","ELEMENT_SET_NO":"999","PERIOD":"95.592","BSTAR":"-0.00001357300000","GP_ID":"224239381","EPHEMERIS_TYPE":"0","APOAPSIS":"548.274","MEAN_MOTION":"15.06400734","NORAD_CAT_ID":"47724","OBJECT_ID":"2021-017C","EPOCH":"2023-02-02T13:31:21.692064","ARG_OF_PERICENTER":"79.6761","RA_OF_ASC_NODE":"169.4503","TLE_LINE2":"2 47724  53.0544 169.4503 0001535  79.6761 280.4401 15.06400734108340","SEMIMAJOR_AXIS":"6925.346","LAUNCH_DATE":"2021-03-04"},{"GP_ID":"224240622","BSTAR":"0.00004596000000","NORAD_CAT_ID":"47725","APOAPSIS":"548.085","MEAN_MOTION":"15.06397072","EPHEMERIS_TYPE":"0","PERIOD":"95.592","ELEMENT_SET_NO":"999","SEMIMAJOR_AXIS":"6925.358","TLE_LINE2":"2 47725  53.0522 239.8863 0001245  85.2541 274.8590 15.06397072107362","RA_OF_ASC_NODE":"239.8863","LAUNCH_DATE":"2021-03-04","OBJECT_ID":"2021-017D","ARG_OF_PERICENTER":"85.2541","EPOCH":"2023-02-02T11:09:22.902624","MEAN_ELEMENT_THEORY":"SGP4","PERIAPSIS":"546.360","ECCENTRICITY":"0.00012450","REV_AT_EPOCH":"10736","CLASSIFICATION_TYPE":"U","TLE_LINE1":"1 47725U 21017D   23033.46484841  .00000403  00000-0  45960-4 0  9991","MEAN_ANOMALY":"274.8590","DECAY_DATE":null,"OBJECT_NAME":"STARLINK-2125","OBJECT_TYPE":"PAYLOAD","MEAN_MOTION_DOT":"0.00000403","FILE":"3768366","SITE":"AFETR","COUNTRY_CODE":"US","MEAN_MOTION_DDOT":"0.0000000000000","REF_FRAME":"TEME","RCS_SIZE":"LARGE","CENTER_NAME":"EARTH","TIME_SYSTEM":"UTC","INCLINATION":"53.0522"},{"MEAN_MOTION_DOT":"-0.00000564","OBJECT_TYPE":"PAYLOAD","OBJECT_NAME":"STARLINK-2126","TLE_LINE1":"1 47726U 21017E   23033.98087658 -.00000564  00000-0 -18958-4 0  9991","MEAN_ANOMALY":"268.2213","DECAY_DATE":null,"CLASSIFICATION_TYPE":"U","ECCENTRICITY":"0.00013910","REV_AT_EPOCH":"10681","PERIAPSIS":"546.252","MEAN_ELEMENT_THEORY":"SGP4","INCLINATION":"53.0509","CENTER_NAME":"EARTH","TIME_SYSTEM":"UTC","RCS_SIZE":"LARGE","MEAN_MOTION_DDOT":"0.0000000000000","REF_FRAME":"TEME","COUNTRY_CODE":"US","SITE":"AFETR","FILE":"3769136","ELEMENT_SET_NO":"999","PERIOD":"95.592","MEAN_MOTION":"15.06399400","APOAPSIS":"548.179","EPHEMERIS_TYPE":"0","NORAD_CAT_ID":"47726","BSTAR":"-0.00001895800000","GP_ID":"224262454","EPOCH":"2023-02-02T23:32:27.736512","ARG_OF_PERICENTER":"91.8935","OBJECT_ID":"2021-017E","LAUNCH_DATE":"2021-03-04","RA_OF_ASC_NODE":"237.5750","TLE_LINE2":"2 47726  53.0509 237.5750 0001391  91.8935 268.2213 15.06399400106815","SEMIMAJOR_AXIS":"6925.350"},{"CLASSIFICATION_TYPE":"U","OBJECT_NAME":"STARLINK-2129","TLE_LINE1":"1 47727U 21017F   23033.53393429  .00000236  00000-0  34702-4 0  9998","DECAY_DATE":null,"MEAN_ANOMALY":"269.8409","MEAN_MOTION_DOT":"0.00000236","OBJECT_TYPE":"PAYLOAD","MEAN_ELEMENT_THEORY":"SGP4","REV_AT_EPOCH":"10852","ECCENTRICITY":"0.00010220","PERIAPSIS":"546.526","RCS_SIZE":"LARGE","TIME_SYSTEM":"UTC","CENTER_NAME":"EARTH","INCLINATION":"53.0532","FILE":"3768366","SITE":"AFETR","MEAN_MOTION_DDOT":"0.0000000000000","REF_FRAME":"TEME","COUNTRY_CODE":"US","ELEMENT_SET_NO":"999","PERIOD":"95.593","GP_ID":"224239135","BSTAR":"0.00003470200000","NORAD_CAT_ID":"47727","APOAPSIS":"547.942","EPHEMERIS_TYPE":"0","MEAN_MOTION":"15.06393359","OBJECT_ID":"2021-017F","ARG_OF_PERICENTER":"90.2697","EPOCH":"2023-02-02T12:48:51.922656","TLE_LINE2":"2 47727  53.0532 159.5820 0001022  90.2697 269.8409 15.06393359108523","SEMIMAJOR_AXIS":"6925.369","RA_OF_ASC_NODE":"159.5820","LAUNCH_DATE":"2021-03-04"},{"LAUNCH_DATE":"2021-03-04","TLE_LINE2":"2 47728  53.0531 239.4684 0001141 102.2776 257.8341 15.06393175107430","SEMIMAJOR_AXIS":"6925.369","RA_OF_ASC_NODE":"239.4684","ARG_OF_PERICENTER":"102.2776","EPOCH":"2023-02-02T13:22:04.817280","OBJECT_ID":"2021-017G","NORAD_CAT_ID":"47728","MEAN_MOTION":"15.06393175","APOAPSIS":"548.025","EPHEMERIS_TYPE":"0","GP_ID":"224239881","BSTAR":"0.00004421000000","PERIOD":"95.593","ELEMENT_SET_NO":"999","COUNTRY_CODE":"US","REF_FRAME":"TEME","MEAN_MOTION_DDOT":"0.0000000000000","FILE":"3768366","SITE":"AFETR","INCLINATION":"53.0531","RCS_SIZE":"LARGE","CENTER_NAME":"EARTH","TIME_SYSTEM":"UTC","PERIAPSIS":"546.444","REV_AT_EPOCH":"10743","ECCENTRICITY":"0.00011410","MEAN_ELEMENT_THEORY":"SGP4","OBJECT_TYPE":"PAYLOAD","MEAN_MOTION_DOT":"0.00000377","CLASSIFICATION_TYPE":"U","DECAY_DATE":null,"TLE_LINE1":"1 47728U 21017G   23033.55700020  .00000377  00000-0  44210-4 0  9991","MEAN_ANOMALY":"257.8341","OBJECT_NAME":"STARLINK-2131"}];
